GLOBALSTAR M045         
1 25676U 99019A   25047.96204138 -.00000054  00000+0  35141-3 0  9991
2 25676  51.9967 287.9399 0000896  41.6432  61.9062 12.27056757178636
GLOBALSTAR M019         
1 25677U 99019B   25047.74117608 -.00000014  00000+0  79563-3 0  9995
2 25677  51.9892  50.4535 0001317  84.4697  86.6539 12.13875637170519
GLOBALSTAR M044         
1 25678U 99019C   25047.61361502 -.00000118  00000+0 -47214-3 0  9990
2 25678  52.0003 347.0872 0006244 164.6225   6.3925 11.90246799156941
GLOBALSTAR M042         
1 25679U 99019D   25047.69390272 -.00000055  00000+0  34799-3 0  9998
2 25679  52.0030  31.1074 0003033  53.1529 117.5835 12.22078416170529
GLOBALSTAR M025         
1 25770U 99031A   25047.85459770 -.00000054  00000+0  42596-3 0  9994
2 25770  51.9815  78.0294 0001150 294.7123 236.4556 11.22559522468190
GLOBALSTAR M049         
1 25771U 99031B   25047.81739140 -.00000087  00000+0 -73881-3 0  9991
2 25771  51.9866 106.8309 0003753 166.6663 193.4233 11.12114839104032
GLOBALSTAR M047         
1 25772U 99031C   25047.87431925 -.00000050  00000+0  53320-3 0  9993
2 25772  51.9824 115.1669 0016416  58.7107 301.5304 11.31925800457483
GLOBALSTAR M052         
1 25773U 99031D   25047.93994286 -.00000024  00000+0  14217-2 0  9997
2 25773  51.9829 216.9200 0002000   0.9351 119.8982 11.15057817465098
